[{"OBJECT_NAME":"YAM-7","OBJECT_ID":"2024-149AN","EPOCH":"2026-03-09T17:13:55.117920","MEAN_MOTION":15.30304554,"ECCENTRICITY":0.00019733,"INCLINATION":97.3828,"RA_OF_ASC_NODE":149.4631,"ARG_OF_PERICENTER":296.5121,"MEAN_ANOMALY":63.5918,"EPHEMERIS_TYPE":0,"CLASSIFICATION_TYPE":"U","NORAD_CAT_ID":60504,"ELEMENT_SET_NO":999,"REV_AT_EPOCH":8683,"BSTAR":0.00030984439,"MEAN_MOTION_DOT":9.009e-5,"MEAN_MOTION_DDOT":0},{"OBJECT_NAME":"STARLINK-34398","OBJECT_ID":"2025-130H","EPOCH":"2026-03-09T07:47:36.043008","MEAN_MOTION":15.30194482,"ECCENTRICITY":0.00012443,"INCLINATION":53.1598,"RA_OF_ASC_NODE":90.484,"ARG_OF_PERICENTER":88.7999,"MEAN_ANOMALY":271.3144,"EPHEMERIS_TYPE":0,"CLASSIFICATION_TYPE":"U","NORAD_CAT_ID":64445,"ELEMENT_SET_NO":999,"REV_AT_EPOCH":4064,"BSTAR":0.00077254153,"MEAN_MOTION_DOT":0.00022587,"MEAN_MOTION_DDOT":0}]
