YAM-7                   
1 60504U 24149AN  26068.71799904  .00009009  00000+0  30984-3 0  9997
2 60504  97.3828 149.4631 0001973 296.5121  63.5918 15.30304554 86835
STARLINK-34398          
1 64445U 25130H   26068.32472272  .00022587  00000+0  77254-3 0  9996
2 64445  53.1598  90.4840 0001244  88.7999 271.3144 15.30194482 40645
